ONEWEB-0208             
1 48243U 21031AK  25268.27006621  .00000180  00000+0  45185-3 0  9999
2 48243  87.9077 342.4586 0001898 105.0514 255.0826 13.14501107213507
ONEWEB-0200             
1 48244U 21031AL  25267.77687846 -.00000259  00000+0 -73177-3 0  9999
2 48244  87.9074 342.5461 0001883 102.9375 257.1966 13.14504382213363
ONEWEB-0217             
1 48245U 21031AM  25268.24944049 -.00000123  00000+0 -36657-3 0  9996
2 48245  87.9083 342.4401 0001898 110.0838 250.0496 13.14503163213374
ONEWEB-0211             
1 48767U 21045A   25268.17664268  .00000121  00000+0  28599-3 0  9996
2 48767  87.9015 312.0148 0001620 103.9381 256.1930 13.16085091209581
ONEWEB-0223             
1 48768U 21045B   25268.13347690  .00000132  00000+0  31648-3 0  9991
2 48768  87.9006 312.0779 0001442 105.8679 254.2610 13.15547353209559
ONEWEB-0230             
1 48769U 21045C   25268.18100824  .00000161  00000+0  39455-3 0  9999
2 48769  87.9001 312.1013 0001851  92.2328 267.9014 13.15550068209827
ONEWEB-0237             
1 48770U 21045D   25268.09385626  .00000033  00000+0  52577-4 0  9995
2 48770  87.9009 312.1154 0001591  98.5168 261.6143 13.15546800209536
ONEWEB-0235             
1 48771U 21045E   25268.14457570  .00000008  00000+0 -13706-4 0  9994
2 48771  87.9006 312.0765 0001434 105.8759 254.2530 13.15549966209539
ONEWEB-0242             
1 48772U 21045F   25268.13821443  .00000045  00000+0  84502-4 0  9990
2 48772  87.9015 312.0650 0001650  93.9070 266.2249 13.15550733209574
ONEWEB-0241             
1 48773U 21045G   25268.12554712  .00000164  00000+0  40030-3 0  9991
2 48773  87.9002 312.1139 0001713 110.5529 249.5785 13.15550247209488
ONEWEB-0243             
1 48774U 21045H   25268.08117348 -.00000032  00000+0 -11817-3 0  9994
2 48774  87.9014 312.1267 0001417  97.1581 262.9710 13.15553758209503
ONEWEB-0222             
1 48775U 21045J   25268.14060687  .00000024  00000+0  30018-4 0  9999
2 48775  87.9016 312.0662 0001752  99.3362 260.7966 13.15548034209552
ONEWEB-0244             
1 48776U 21045K   25268.09067066  .00001787  00000+0  47112-2 0  9990
2 48776  87.9018 312.0598 0002411  97.0806 263.0599 13.15564762210112
ONEWEB-0247             
1 48777U 21045L   25268.08751335 -.00000026  00000+0 -10429-3 0  9998
2 48777  87.9005 312.1278 0000881 107.8480 252.2747 13.15546715209551
ONEWEB-0245             
1 48778U 21045M   25268.08277155 -.00000030  00000+0 -11455-3 0  9997
2 48778  87.9007 312.0925 0001885 102.8129 257.3213 13.15547915209526
ONEWEB-0229             
1 48779U 21045N   25268.15406478 -.00000058  00000+0 -18777-3 0  9992
2 48779  87.9006 312.0780 0001733  93.9417 266.1911 13.15547146209560
ONEWEB-0228             
1 48780U 21045P   25268.11142062  .00000181  00000+0  44671-3 0  9993
2 48780  87.9013 312.0630 0001735  97.2775 262.8552 13.15546720209471
ONEWEB-0232             
1 48781U 21045Q   25268.08594621  .00000001  00000+0 -32190-4 0  9998
2 48781  87.9008 312.0599 0001831  96.2815 263.8524 13.15547987209792
ONEWEB-0231             
1 48782U 21045R   25268.13980966  .00000055  00000+0  11200-3 0  9992
2 48782  87.9006 312.1001 0001549  98.1422 261.9884 13.15547609209497
ONEWEB-0234             
1 48783U 21045S   25268.17770174  .00000110  00000+0  25833-3 0  9994
2 48783  87.9009 312.0625 0002632 106.3413 253.8007 13.15546798209639
ONEWEB-0238             
1 48784U 21045T   25268.17797651  .00000107  00000+0  25041-3 0  9991
2 48784  87.9005 312.0579 0002200 100.3893 259.7486 13.15549785209535
ONEWEB-0240             
1 48785U 21045U   25268.12318225  .00000841  00000+0  21993-2 0  9999
2 48785  87.9011 312.0552 0001850 102.0955 258.0383 13.15552277209552
ONEWEB-0246             
1 48786U 21045V   25268.19368122  .00000138  00000+0  33330-3 0  9996
2 48786  87.9018 312.0533 0001690  94.1941 265.9382 13.15549950209434
ONEWEB-0210             
1 48787U 21045W   25268.09227502  .00000036  00000+0  62090-4 0  9995
2 48787  87.9014 312.0727 0001167  91.2206 268.9058 13.15549606209461
ONEWEB-0214             
1 48788U 21045X   25268.17704251  .00000083  00000+0  18641-3 0  9990
2 48788  87.9012 312.0433 0001458  86.7427 273.3870 13.15549122209444
ONEWEB-0221             
1 48789U 21045Y   25267.49965917  .00000073  00000+0  15881-3 0  9995
2 48789  87.9006 312.2031 0001640  99.6718 260.4598 13.15546173209440
ONEWEB-0213             
1 48790U 21045Z   25268.17308031  .00000063  00000+0  13266-3 0  9995
2 48790  87.9004 312.0775 0001565  98.4288 261.7020 13.15550024209598
ONEWEB-0212             
1 48791U 21045AA  25268.15011250 -.00000059  00000+0 -19017-3 0  9995
2 48791  87.9010 312.0652 0001904  97.3385 262.7962 13.15549765209588
ONEWEB-0227             
1 48792U 21045AB  25268.14932122 -.00000031  00000+0 -11652-3 0  9992
2 48792  87.9003 312.0833 0001755  99.3230 260.8099 13.15547446209536
ONEWEB-0226             
1 48793U 21045AC  25268.14297609 -.00000005  00000+0 -48537-4 0  9991
2 48793  87.9010 312.0922 0001493  95.1992 264.9309 13.15549474209501
ONEWEB-0224             
1 48794U 21045AD  25268.03048806  .00000202  00000+0  50337-3 0  9990
2 48794  87.9007 312.1497 0002186 122.8174 237.3167 13.15548227209417
ONEWEB-0233             
1 48795U 21045AE  25268.11114958  .00000236  00000+0  59218-3 0  9996
2 48795  87.9007 312.1448 0001656 105.5611 254.5702 13.15550225209449
ONEWEB-0190             
1 48796U 21045AF  25268.17466185  .00000120  00000+0  28474-3 0  9997
2 48796  87.9004 312.0947 0001164 112.5523 247.5730 13.15546961209528
ONEWEB-0236             
1 48797U 21045AG  25268.11604020  .00000226  00000+0  56740-3 0  9998
2 48797  87.9006 312.1174 0001984  96.2685 263.8672 13.15550688209405
ONEWEB-0248             
1 48798U 21045AH  25268.12870568  .00000197  00000+0  48938-3 0  9999
2 48798  87.9014 312.0707 0001677 117.6447 242.4854 13.15550669209560
ONEWEB-0225             
1 48799U 21045AJ  25268.15089834 -.00000028  00000+0 -10825-3 0  9990
2 48799  87.9008 312.0966 0001301 108.3611 251.7661 13.15550204209570
ONEWEB-0215             
1 48800U 21045AK  25267.13206268  .00000117  00000+0  27703-3 0  9992
2 48800  87.9022 312.2523 0001380 116.1396 243.9877 13.15548661209312
ONEWEB-0216             
1 48801U 21045AL  25268.20637723  .00000153  00000+0  37340-3 0  9994
2 48801  87.9006 312.0778 0001683  91.7024 268.4300 13.15550115209463
ONEWEB-0239             
1 48802U 21045AM  25268.13505053  .00000090  00000+0  20453-3 0  9994
2 48802  87.9009 312.1064 0001665 123.3748 236.7542 13.15550450209492
ONEWEB-0249             
1 48967U 21060A   25267.97469905  .00000058  00000+0  11751-3 0  9994
2 48967  87.8968 281.6321 0001906  94.6307 265.5042 13.16596382204712
ONEWEB-0250             
1 48968U 21060B   25268.26292151  .00000022  00000+0  19518-4 0  9996
2 48968  87.8966 280.1979 0002449 114.0759 246.0634 13.25814104205116
ONEWEB-0252             
1 48970U 21060D   25268.08235259 -.00000272  00000+0 -74468-3 0  9998
2 48970  87.8966 281.6039 0001810  81.4057 278.7279 13.16593551204779
ONEWEB-0253             
1 48971U 21060E   25268.29926201 -.00000291  00000+0 -79606-3 0  9996
2 48971  87.8966 281.5640 0001641  94.3976 265.7342 13.16593672204739
ONEWEB-0254             
1 48972U 21060F   25268.08078839  .00000018  00000+0  13156-4 0  9993
2 48972  87.8972 281.5954 0001661 103.9933 256.1382 13.16594656204705
ONEWEB-0255             
1 48973U 21060G   25268.11877373  .00000132  00000+0  31216-3 0  9991
2 48973  87.8960 281.6126 0001705  98.2643 261.8682 13.16593175204787
ONEWEB-0256             
1 48974U 21060H   25268.29688774 -.00000297  00000+0 -81112-3 0  9990
2 48974  87.8962 281.5875 0001895  87.2893 272.8455 13.16593931204774
ONEWEB-0257             
1 48975U 21060J   25268.32935044  .00000154  00000+0  36891-3 0  9994
2 48975  87.8969 281.5515 0001641  93.0627 267.0691 13.16596293204730
ONEWEB-0258             
1 48976U 21060K   25268.33093571  .00000062  00000+0  12785-3 0  9990
2 48976  87.8961 281.5734 0001915  93.4193 266.7157 13.16592329204742
ONEWEB-0259             
1 48977U 21060L   25268.02061343  .00000144  00000+0  34367-3 0  9990
2 48977  87.8965 281.6222 0001773  96.6551 263.4782 13.16596142204739
ONEWEB-0260             
1 48978U 21060M   25268.08789289  .00000016  00000+0  70279-5 0  9995
2 48978  87.8958 281.6309 0001715  75.8801 284.2520 13.16595957204724
ONEWEB-0261             
1 48979U 21060N   25267.75384674  .00000007  00000+0 -15076-4 0  9992
2 48979  87.8960 281.6994 0001425  93.0963 267.0331 13.16594518204739
ONEWEB-0262             
1 48980U 21060P   25268.03802746  .00000092  00000+0  20760-3 0  9999
2 48980  87.8970 281.6080 0001845 101.7450 258.3888 13.16592990204734
ONEWEB-0263             
1 48981U 21060Q   25268.29769510 -.00000055  00000+0 -17698-3 0  9996
2 48981  87.8963 281.5772 0001490 101.6444 258.4854 13.16594977204733
ONEWEB-0264             
1 48982U 21060R   25268.33490954  .00000094  00000+0  21209-3 0  9999
2 48982  87.8960 281.5743 0001627  86.0816 274.0501 13.16593711204749
ONEWEB-0266             
1 48984U 21060T   25268.28027246  .00000070  00000+0  14949-3 0  9992
2 48984  87.8970 281.5632 0002009  95.1285 265.0075 13.16596289204722
ONEWEB-0267             
1 48985U 21060U   25267.98737426  .00000021  00000+0  20415-4 0  9999
2 48985  87.8967 281.6246 0001592  93.1305 267.0008 13.16595163204692
ONEWEB-0268             
1 48986U 21060V   25268.03168908  .00000091  00000+0  20422-3 0  9994
2 48986  87.8967 281.6215 0001800  88.6672 271.4665 13.16595884204965
ONEWEB-0269             
1 48987U 21060W   25268.08871154  .00000052  00000+0  10323-3 0  9990
2 48987  87.8958 281.6395 0001949  88.7097 271.4257 13.16594121204747
ONEWEB-0270             
1 48988U 21060X   25268.33410328  .00000102  00000+0  23286-3 0  9999
2 48988  87.8967 281.5629 0001555 103.3457 256.7848 13.16595350204819
